{"type":"Feature","properties":{"area":-7977.987395551521,"perimeter":783.9142635056304,"hash":1768378538127728400,"bytes":"BHEKDLCL5M7M6M6N7N7O6O4N5N5O4O3O:J;J;K:K=K<K<L=L9L9M8M:L;L;M:M:N8N9N1P1Q2P3P3Q2Q2R3R4P5P4Q","classes":[103],"names_by_coordinate":[{"name":"New field","coordinate":[12.539318425163302,79.3165549964252]},{"name":"New field","coordinate":[12.539670012722341,79.31739683039673]},{"name":"New field","coordinate":[12.539466860821065,79.31734645398342]},{"name":"New field","coordinate":[12.539542146620466,79.31654521473749]}]},"geometry":{"type":"MultiPolygon","coordinates":["POLYGON ((79.3166112899780273 12.5397656855876356, 79.3166327476501465 12.5397656855876356, 79.3166327476501465 12.5397237937557584, 79.3166542053222656 12.5397028478398198, 79.3167185783386230 12.5397028478398198, 79.3167400360107422 12.5397237937557584, 79.3168795108795166 12.5397237937557584, 79.3168902397155762 12.5397133207977891, 79.3169116973876953 12.5397133207977891, 79.3169116973876953 12.5396819019238812, 79.3169009685516357 12.5396819019238812, 79.3168902397155762 12.5396714289659119, 79.3168902397155762 12.5396400100920040, 79.3169116973876953 12.5396190641760654, 79.3169116973876953 12.5396085912180961, 79.3169331550598145 12.5395876453021575, 79.3169546127319336 12.5395876453021575, 79.3169653415679932 12.5395981182601268, 79.3170404434204102 12.5395981182601268, 79.3170726299285889 12.5395666993862189, 79.3170726299285889 12.5395562264282496, 79.3170833587646484 12.5395457534702803, 79.3170833587646484 12.5394096050166794, 79.3170619010925293 12.5393886591007409, 79.3170404434204102 12.5393886591007409, 79.3170297145843506 12.5393781861427716, 79.3169975280761719 12.5393781861427716, 79.3169867992401123 12.5393677131848023, 79.3169116973876953 12.5393677131848023, 79.3169009685516357 12.5393572402268330, 79.3168687820434570 12.5393572402268330, 79.3168473243713379 12.5393362943108944, 79.3168473243713379 12.5393258213529251, 79.3168258666992188 12.5393048754369865, 79.3167936801910400 12.5393048754369865, 79.3167722225189209 12.5392839295210479, 79.3167722225189209 12.5392420376891707, 79.3167293071746826 12.5392001458572935, 79.3166542053222656 12.5392001458572935, 79.3166434764862061 12.5391896728993260, 79.3166327476501465 12.5391896728993260, 79.3166112899780273 12.5391687269833874, 79.3165791034698486 12.5391687269833874, 79.3165576457977295 12.5391477810674488, 79.3165254592895508 12.5391477810674488, 79.3165147304534912 12.5391373081094795, 79.3164932727813721 12.5391373081094795, 79.3164718151092529 12.5391163621935409, 79.3164503574371338 12.5391163621935409, 79.3164181709289551 12.5390849433196330, 79.3164288997650146 12.5390744703616637, 79.3163859844207764 12.5390744703616637, 79.3163645267486572 12.5390535244457251, 79.3163323402404785 12.5390535244457251, 79.3163108825683594 12.5390325785297865, 79.3163108825683594 12.5390116326138479, 79.3163001537322998 12.5390011596558786, 79.3163001537322998 12.5389906866979093, 79.3162894248962402 12.5389906866979093, 79.3162143230438232 12.5389173759921242, 79.3162143230438232 12.5389069030341549, 79.3161821365356445 12.5389069030341549, 79.3161714076995850 12.5388964300761856, 79.3160963058471680 12.5388964300761856, 79.3160748481750488 12.5388754841602470, 79.3160748481750488 12.5388650112022777, 79.3160533905029297 12.5388650112022777, 79.3160426616668701 12.5388545382443084, 79.3160104751586914 12.5388545382443084, 79.3159997463226318 12.5388440652863391, 79.3159890174865723 12.5388440652863391, 79.3159675598144531 12.5388231193704005, 79.3159568309783936 12.5388231193704005, 79.3159461021423340 12.5388126464124312, 79.3159139156341553 12.5388126464124312, 79.3159139156341553 12.5388650112022777, 79.3159031867980957 12.5388754841602470, 79.3159031867980957 12.5389173759921242, 79.3158817291259766 12.5389383219080628, 79.3158710002899170 12.5389383219080628, 79.3158602714538574 12.5389487948660321, 79.3158495426177979 12.5389487948660321, 79.3158173561096191 12.5389802137399400, 79.3158173561096191 12.5390744703616637, 79.3158280849456787 12.5390849433196330, 79.3158280849456787 12.5391268351515102, 79.3158388137817383 12.5391373081094795, 79.3158388137817383 12.5391582540254181, 79.3158495426177979 12.5391687269833874, 79.3158495426177979 12.5392001458572935, 79.3158602714538574 12.5392106188152628, 79.3159461021423340 12.5392106188152628, 79.3159568309783936 12.5392210917732321, 79.3160319328308105 12.5392210917732321, 79.3160748481750488 12.5392629836051093, 79.3160748481750488 12.5392839295210479, 79.3160855770111084 12.5392944024790172, 79.3160855770111084 12.5393362943108944, 79.3161392211914062 12.5393886591007409, 79.3161821365356445 12.5393886591007409, 79.3161928653717041 12.5393991320587102, 79.3162143230438232 12.5393991320587102, 79.3162250518798828 12.5394096050166794, 79.3162250518798828 12.5394829157224645, 79.3165254592895508 12.5394829157224645, 79.3165791034698486 12.5395352805123110, 79.3165791034698486 12.5395457534702803, 79.3165898323059082 12.5395562264282496, 79.3165898323059082 12.5395666993862189, 79.3165683746337891 12.5395876453021575, 79.3165576457977295 12.5395876453021575, 79.3165469169616699 12.5395981182601268, 79.3165469169616699 12.5396085912180961, 79.3165254592895508 12.5396295371340347, 79.3165147304534912 12.5396295371340347, 79.3164932727813721 12.5396504830499733, 79.3164825439453125 12.5396504830499733, 79.3164718151092529 12.5396609560079426, 79.3164610862731934 12.5396609560079426, 79.3164610862731934 12.5396714289659119, 79.3164718151092529 12.5396714289659119, 79.3164825439453125 12.5396819019238812, 79.3164825439453125 12.5396923748818505, 79.3165040016174316 12.5397133207977891, 79.3165361881256104 12.5397133207977891, 79.3165576457977295 12.5397342667137277, 79.3165576457977295 12.5397447396716970, 79.3165683746337891 12.5397552126296663, 79.3165683746337891 12.5397656855876356, 79.3165791034698486 12.5397761585456049, 79.3166005611419678 12.5397761585456049, 79.3166112899780273 12.5397656855876356))","POLYGON ((79.3173408508300781 12.5394829157224645, 79.3173515796661377 12.5394829157224645, 79.3173623085021973 12.5394933886804338, 79.3174266815185547 12.5394933886804338, 79.3174481391906738 12.5395143345963724, 79.3175232410430908 12.5395143345963724, 79.3175446987152100 12.5395352805123110, 79.3175446987152100 12.5395457534702803, 79.3175554275512695 12.5395562264282496, 79.3175554275512695 12.5395666993862189, 79.3176090717315674 12.5396190641760654, 79.3176412582397461 12.5396190641760654, 79.3176519870758057 12.5396295371340347, 79.3176734447479248 12.5396295371340347, 79.3176841735839844 12.5396400100920040, 79.3176841735839844 12.5396295371340347, 79.3177163600921631 12.5395981182601268, 79.3177485466003418 12.5395981182601268, 79.3177592754364014 12.5395876453021575, 79.3177592754364014 12.5394933886804338, 79.3176949024200439 12.5394305509326180, 79.3176734447479248 12.5394305509326180, 79.3176198005676270 12.5393781861427716, 79.3174803256988525 12.5393781861427716, 79.3174695968627930 12.5393886591007409, 79.3174374103546143 12.5393886591007409, 79.3174266815185547 12.5393991320587102, 79.3173301219940186 12.5393991320587102, 79.3173408508300781 12.5394096050166794, 79.3173408508300781 12.5394829157224645))","POLYGON ((79.3164610862731934 12.5396504830499733, 79.3164718151092529 12.5396504830499733, 79.3164825439453125 12.5396400100920040, 79.3164932727813721 12.5396400100920040, 79.3165147304534912 12.5396190641760654, 79.3165254592895508 12.5396190641760654, 79.3165361881256104 12.5396085912180961, 79.3165361881256104 12.5395981182601268, 79.3165576457977295 12.5395771723441882, 79.3165683746337891 12.5395771723441882, 79.3165791034698486 12.5395666993862189, 79.3165791034698486 12.5395562264282496, 79.3165683746337891 12.5395457534702803, 79.3165683746337891 12.5395352805123110, 79.3165254592895508 12.5394933886804338, 79.3162250518798828 12.5394933886804338, 79.3162250518798828 12.5396400100920040, 79.3162465095520020 12.5396400100920040, 79.3162572383880615 12.5396504830499733, 79.3163537979125977 12.5396504830499733, 79.3163645267486572 12.5396609560079426, 79.3163752555847168 12.5396609560079426, 79.3163859844207764 12.5396714289659119, 79.3164396286010742 12.5396714289659119, 79.3164503574371338 12.5396819019238812, 79.3164503574371338 12.5396609560079426, 79.3164610862731934 12.5396504830499733))","POLYGON ((79.3174803256988525 12.5398389962934207, 79.3175232410430908 12.5398389962934207, 79.3175017833709717 12.5398180503774821, 79.3175017833709717 12.5397971044615435, 79.3175125122070312 12.5397866315035742, 79.3175017833709717 12.5397761585456049, 79.3175017833709717 12.5397447396716970, 79.3174052238464355 12.5396504830499733, 79.3172872066497803 12.5396504830499733, 79.3172764778137207 12.5396609560079426, 79.3172550201416016 12.5396609560079426, 79.3172550201416016 12.5397656855876356, 79.3173193931579590 12.5398285233354514, 79.3173515796661377 12.5398285233354514, 79.3173623085021973 12.5398389962934207, 79.3173944950103760 12.5398389962934207, 79.3174052238464355 12.5398494692513900, 79.3174266815185547 12.5398494692513900, 79.3174374103546143 12.5398599422093593, 79.3174588680267334 12.5398599422093593, 79.3174803256988525 12.5398389962934207))"]}}